{"type": "FeatureCollection", "features": [{"type": "Feature", "properties": {"iso3": "IND", "name": "India"}, "geometry": {"type": "Polygon", "coordinates": [[[74.0, 37.05], [74.6, 37.0], [75.5, 36.9], [76.2, 36.5], [77.0, 36.0], [77.8, 35.5], [78.5, 35.0], [79.3, 34.5], [79.8, 34.0], [80.2, 33.5], [80.0, 33.0], [79.5, 32.5], [79.0, 31.5], [79.5, 31.0], [80.5, 30.5], [81.0, 30.2], [81.5, 30.0], [82.0, 29.8], [83.0, 29.5], [84.0, 28.8], [85.0, 28.2], [86.0, 27.8], [87.0, 27.2], [88.0, 27.0], [88.8, 27.2], [89.5, 27.5], [90.0, 27.5], [91.5, 27.8], [92.0, 28.0], [93.0, 28.5], [94.0, 28.8], [95.0, 29.0], [96.0, 28.8], [97.0, 28.2], [97.3, 27.8], [96.5, 27.0], [95.5, 26.0], [94.5, 25.0], [94.0, 24.0], [93.5, 23.0], [93.0, 22.0], [92.5, 21.5], [92.0, 21.0], [92.2, 20.7], [91.5, 21.0], [90.5, 22.0], [89.0, 22.0], [88.5, 21.7], [88.0, 21.5], [87.0, 21.2], [86.0, 20.5], [85.0, 19.8], [84.0, 19.0], [83.0, 18.0], [81.5, 16.5], [80.5, 15.5], [80.2, 14.0], [80.0, 13.0], [79.8, 11.5], [79.5, 10.0], [78.5, 8.5], [77.5, 8.0], [76.5, 9.0], [75.5, 11.0], [74.5, 13.0], [73.5, 15.0], [73.0, 17.0], [72.8, 18.5], [72.5, 19.5], [72.0, 21.0], [71.0, 22.0], [70.0, 22.5], [68.5, 23.5], [68.0, 23.8], [68.5, 24.5], [69.0, 25.0], [69.5, 26.0], [70.0, 27.0], [70.5, 28.0], [71.0, 29.0], [72.0, 30.0], [73.0, 30.5], [73.5, 31.0], [74.0, 32.0], [74.0, 33.0], [74.5, 34.0], [74.5, 35.0], [74.5, 36.0], [74.0, 37.05]]]}}]}